{
  "links" : {
    "next" : "https://api.nasa.gov/neo/rest/v1/feed?start_date=1998-11-09&end_date=1998-11-09&detailed=true&api_key=t0TVs3DtDT2H8Oy2Zy8m2eVrNsAVKAexjcZXUckd",
    "prev" : "https://api.nasa.gov/neo/rest/v1/feed?start_date=1998-11-07&end_date=1998-11-07&detailed=true&api_key=t0TVs3DtDT2H8Oy2Zy8m2eVrNsAVKAexjcZXUckd",
    "self" : "https://api.nasa.gov/neo/rest/v1/feed?start_date=1998-11-08&end_date=1998-11-08&detailed=true&api_key=t0TVs3DtDT2H8Oy2Zy8m2eVrNsAVKAexjcZXUckd"
  },
  "element_count" : 8,
  "near_earth_objects" : {
    "1998-11-08" : [ {
      "links" : {
        "self" : "https://api.nasa.gov/neo/rest/v1/neo/3763594?api_key=t0TVs3DtDT2H8Oy2Zy8m2eVrNsAVKAexjcZXUckd"
      },
      "neo_reference_id" : "3763594",
      "name" : "(2016 VP4)",
      "nasa_jpl_url" : "http://ssd.jpl.nasa.gov/sbdb.cgi?sstr=3763594",
      "absolute_magnitude_h" : 24.2,
      "estimated_diameter" : {
        "kilometers" : {
          "estimated_diameter_min" : 0.0384197891,
          "estimated_diameter_max" : 0.0859092601
        },
        "meters" : {
          "estimated_diameter_min" : 38.4197891064,
          "estimated_diameter_max" : 85.9092601232
        },
        "miles" : {
          "estimated_diameter_min" : 0.0238729428,
          "estimated_diameter_max" : 0.0533815229
        },
        "feet" : {
          "estimated_diameter_min" : 126.0491808919,
          "estimated_diameter_max" : 281.8545369825
        }
      },
      "is_potentially_hazardous_asteroid" : false,
      "close_approach_data" : [ {
        "close_approach_date" : "1998-11-08",
        "epoch_date_close_approach" : 910512000000,
        "relative_velocity" : {
          "kilometers_per_second" : "11.5226777702",
          "kilometers_per_hour" : "41481.6399728183",
          "miles_per_hour" : "25775.0779042214"
        },
        "miss_distance" : {
          "astronomical" : "0.2142105715",
          "lunar" : "83.327911377",
          "kilometers" : "32045446",
          "miles" : "19912116"
        },
        "orbiting_body" : "Earth"
      } ],
      "orbital_data" : {
        "orbit_id" : "14",
        "orbit_determination_date" : "2017-04-06 08:22:15",
        "orbit_uncertainty" : "6",
        "minimum_orbit_intersection" : ".0809504",
        "jupiter_tisserand_invariant" : "3.333",
        "epoch_osculation" : "2458000.5",
        "eccentricity" : ".547556561965313",
        "semi_major_axis" : "2.352101917028136",
        "inclination" : "4.907623234592458",
        "ascending_node_longitude" : "248.2243468322947",
        "orbital_period" : "1317.597101188631",
        "perihelion_distance" : "1.064193077948188",
        "perihelion_argument" : "189.1403192746571",
        "aphelion_distance" : "3.640010756108084",
        "perihelion_time" : "2457729.800395836582",
        "mean_anomaly" : "73.96180320290412",
        "mean_motion" : ".2732246448290123",
        "equinox" : "J2000"
      }
    }, {
      "links" : {
        "self" : "https://api.nasa.gov/neo/rest/v1/neo/2482533?api_key=t0TVs3DtDT2H8Oy2Zy8m2eVrNsAVKAexjcZXUckd"
      },
      "neo_reference_id" : "2482533",
      "name" : "482533 (2012 UA34)",
      "nasa_jpl_url" : "http://ssd.jpl.nasa.gov/sbdb.cgi?sstr=2482533",
      "absolute_magnitude_h" : 19.7,
      "estimated_diameter" : {
        "kilometers" : {
          "estimated_diameter_min" : 0.3051792326,
          "estimated_diameter_max" : 0.6824015094
        },
        "meters" : {
          "estimated_diameter_min" : 305.1792325939,
          "estimated_diameter_max" : 682.4015094011
        },
        "miles" : {
          "estimated_diameter_min" : 0.1896295249,
          "estimated_diameter_max" : 0.4240245083
        },
        "feet" : {
          "estimated_diameter_min" : 1001.2442334633,
          "estimated_diameter_max" : 2238.8501681036
        }
      },
      "is_potentially_hazardous_asteroid" : false,
      "close_approach_data" : [ {
        "close_approach_date" : "1998-11-08",
        "epoch_date_close_approach" : 910512000000,
        "relative_velocity" : {
          "kilometers_per_second" : "19.4912512689",
          "kilometers_per_hour" : "70168.5045681674",
          "miles_per_hour" : "43599.9799634816"
        },
        "miss_distance" : {
          "astronomical" : "0.4520097792",
          "lunar" : "175.8318023682",
          "kilometers" : "67619696",
          "miles" : "42016932"
        },
        "orbiting_body" : "Earth"
      } ],
      "orbital_data" : {
        "orbit_id" : "40",
        "orbit_determination_date" : "2017-04-06 09:18:42",
        "orbit_uncertainty" : "1",
        "minimum_orbit_intersection" : ".0879442",
        "jupiter_tisserand_invariant" : "7.057",
        "epoch_osculation" : "2458000.5",
        "eccentricity" : ".8016065259816493",
        "semi_major_axis" : ".7859942400731948",
        "inclination" : "19.8074429295104",
        "ascending_node_longitude" : "19.04844741042721",
        "orbital_period" : "254.5232570062881",
        "perihelion_distance" : ".1559361278465347",
        "perihelion_argument" : "222.3456478849857",
        "aphelion_distance" : "1.416052352299855",
        "perihelion_time" : "2457900.112073067464",
        "mean_anomaly" : "141.9895930956915",
        "mean_motion" : "1.414409057287468",
        "equinox" : "J2000"
      }
    } ]
  }
}